NORAD_CAT_ID,OBJECT_NAME,OBJECT_TYPE,EPOCH,MEAN_MOTION,ECCENTRICITY,INCLINATION,RA_OF_ASC_NODE,ARG_OF_PERICENTER,MEAN_ANOMALY,BSTAR,MEAN_MOTION_DOT,MEAN_MOTION_DDOT,TLE_LINE0,TLE_LINE1,TLE_LINE2,SEMIMAJOR_AXIS,PERIOD,APOGEE,PERIGEE,DECAYED
52669.0,STARLINK-3972,PAYLOAD,2022-10-14 20:15:59,15.08847806,0.000206,53.2175,328.9922,40.2558,319.8587,0.00013515,1.864e-05,0.0,0 STARLINK-3972,1 52669U 22053P   22287.84444244  .00001864  00000-0  13515-3 0  9992,2 52669  53.2175 328.9922 0002060  40.2558 319.8587 15.08847806 23564,6917.857,95.437,541.1469999999998,538.2959999999998,0.0
52669.0,STARLINK-3972,PAYLOAD,2022-10-15 12:09:50,15.08850023,0.0002121999999999,53.2169,326.0187,37.0639,323.05,0.00013419,1.849e-05,0.0,0 STARLINK-3972,1 52669U 22053P   22288.50683799  .00001849  00000-0  13419-3 0  9992,2 52669  53.2169 326.0187 0002122  37.0639 323.0500 15.08850023 23660,6917.85,95.437,541.183,538.247,0.0
52669.0,STARLINK-3972,PAYLOAD,2022-10-16 04:03:42,15.08836969,0.0002655,53.2175,323.0436,33.2613,326.8546,-0.00013024,-2.361e-05,0.0,0 STARLINK-3972,1 52669U 22053P   22289.16924020 -.00002361  00000-0 -13024-3 0  9994,2 52669  53.2175 323.0436 0002655  33.2613 326.8546 15.08836969 23767,6917.89,95.438,541.591,537.918,0.0
52669.0,STARLINK-3972,PAYLOAD,2022-10-16 12:00:38,15.08831511,0.0002014,53.2176,321.5572,38.2363,321.8771,-0.00019733,-3.427e-05,0.0,0 STARLINK-3972,1 52669U 22053P   22289.50044229 -.00003427  00000-0 -19733-3 0  9993,2 52669  53.2176 321.5572 0002014  38.2363 321.8771 15.08831511 23817,6917.906,95.438,541.165,538.378,0.0
52669.0,STARLINK-3972,PAYLOAD,2022-10-17 08:40:39,15.08831016,0.0002049,53.2176,317.6924,35.8133,324.2996,-8.1161e-05,-1.579e-05,0.0,0 STARLINK-3972,1 52669U 22053P   22290.36156418 -.00001579  00000-0 -81161-4 0  9994,2 52669  53.2176 317.6924 0002049  35.8133 324.2996 15.08831016 23940,6917.908,95.438,541.19,538.355,0.0
52669.0,STARLINK-3972,PAYLOAD,2022-10-17 11:51:25,15.08831707,0.0002009999999999,53.2175,317.0975,35.5242,324.5883,-4.1452e-05,-9.48e-06,0.0,0 STARLINK-3972,1 52669U 22053P   22290.49404469 -.00000948  00000-0 -41452-4 0  9998,2 52669  53.2175 317.0975 0002010  35.5242 324.5883 15.08831707 23962,6917.906,95.438,541.161,538.38,0.0
52669.0,STARLINK-3972,PAYLOAD,2022-10-18 03:45:16,15.08841797,0.0002053,53.2177,314.1246,35.1791,324.9336,0.00026822,3.983e-05,0.0,0 STARLINK-3972,1 52669U 22053P   22291.15644350  .00003983  00000-0  26822-3 0  9990,2 52669  53.2177 314.1246 0002053  35.1791 324.9336 15.08841797 24064,6917.875,95.437,541.16,538.32,0.0
52669.0,STARLINK-3972,PAYLOAD,2022-10-18 10:06:49,15.08836444,0.0002103,53.2175,312.9351,36.6854,323.4282,0.00016427,2.327e-05,0.0,0 STARLINK-3972,1 52669U 22053P   22291.42140683  .00002327  00000-0  16427-3 0  9991,2 52669  53.2175 312.9351 0002103  36.6854 323.4282 15.08836444 24109,6917.891,95.438,541.211,538.3009999999998,0.0
52669.0,STARLINK-3972,PAYLOAD,2022-10-18 18:03:45,15.08837585,0.0002115,53.2175,311.4481,35.9514,324.1620000000001,0.00019001,2.737e-05,0.0,0 STARLINK-3972,1 52669U 22053P   22291.75260810  .00002737  00000-0  19001-3 0  9998,2 52669  53.2175 311.4481 0002115  35.9514 324.1620 15.08837585 24151,6917.888000000001,95.438,541.216,538.29,0.0
52669.0,STARLINK-3972,PAYLOAD,2022-10-19 09:57:36,15.08847909,0.0002227,53.2169,308.4746,36.2327,323.8816,0.00027402,4.076e-05,0.0,0 STARLINK-3972,1 52669U 22053P   22292.41500383  .00004076  00000-0  27402-3 0  9996,2 52669  53.2169 308.4746 0002227  36.2327 323.8816 15.08847909 24259,6917.856,95.437,541.262,538.181,0.0
52669.0,STARLINK-3972,PAYLOAD,2022-10-20 11:23:46,15.08851305,0.0002174999999999,53.217,303.7171,42.0392,318.0767,0.00022478,3.292e-05,0.0,0 STARLINK-3972,1 52669U 22053P   22293.47484028  .00003292  00000-0  22478-3 0  9997,2 52669  53.2170 303.7171 0002175  42.0392 318.0767 15.08851305 24414,6917.846,95.437,541.215,538.206,0.0
52669.0,STARLINK-3972,PAYLOAD,2022-10-20 17:45:19,15.08840829,0.0002197,53.2165,302.5278,39.7428,320.3725,2.9702e-06,-2.41e-06,0.0,0 STARLINK-3972,1 52669U 22053P   22293.73980434 -.00000241  00000-0  29702-5 0  9999,2 52669  53.2165 302.5278 0002197  39.7428 320.3725 15.08840829 24453,6917.878000000002,95.438,541.263,538.2230000000002,0.0
52669.0,STARLINK-3972,PAYLOAD,2022-10-21 08:03:46,15.08849618,0.0002201,53.2163,299.8512,41.4512,318.6647,0.00027212,4.046e-05,0.0,0 STARLINK-3972,1 52669U 22053P   22294.33596033  .00004046  00000-0  27212-3 0  9992,2 52669  53.2163 299.8512 0002201  41.4512 318.6647 15.08849618 24548,6917.851,95.437,541.239,538.193,0.0
52669.0,STARLINK-3972,PAYLOAD,2022-10-21 17:36:06,15.08838685,0.0002293,53.216,298.0673,42.5214,317.5955,3.7657e-05,3.11e-06,0.0,0 STARLINK-3972,1 52669U 22053P   22294.73340490  .00000311  00000-0  37657-4 0  9996,2 52669  53.2160 298.0673 0002293  42.5214 317.5955 15.08838685 24605,6917.884,95.438,541.336,538.163,0.0
52669.0,STARLINK-3972,PAYLOAD,2022-10-22 03:08:24,15.088451199999998,0.0002336999999999,53.216,296.2827,43.2649,316.8526,0.00019332,2.79e-05,0.0,0 STARLINK-3972,1 52669U 22053P   22295.13084301  .00002790  00000-0  19332-3 0  9999,2 52669  53.2160 296.2827 0002337  43.2649 316.8526 15.08845120 24669,6917.865,95.437,541.346,538.113,0.0
52669.0,STARLINK-3972,PAYLOAD,2022-10-22 07:54:34,15.08848723,0.000233,53.2161,295.3908,43.7665,316.3512,0.00029028,4.336e-05,0.0,0 STARLINK-3972,1 52669U 22053P   22295.32956176  .00004336  00000-0  29028-3 0  9999,2 52669  53.2161 295.3908 0002330  43.7665 316.3512 15.08848723 24691,6917.854,95.437,541.331,538.107,0.0
52669.0,STARLINK-3972,PAYLOAD,2022-10-22 17:26:53,15.08836759,0.0002245,53.216,293.6058,43.0728,317.0440000000001,7.3831e-05,8.87e-06,0.0,0 STARLINK-3972,1 52669U 22053P   22295.72700611  .00000887  00000-0  73831-4 0  9993,2 52669  53.2160 293.6058 0002245  43.0728 317.0440 15.08836759 24756,6917.89,95.438,541.308,538.202,0.0
52669.0,STARLINK-3972,PAYLOAD,2022-10-23 02:59:11,15.08850392,0.0002355,53.216,291.8217,42.8154,317.3022,0.00038263,5.808e-05,0.0,0 STARLINK-3972,1 52669U 22053P   22296.12444278  .00005808  00000-0  38263-3 0  9999,2 52669  53.2160 291.8217 0002355  42.8154 317.3022 15.08850392 24810,6917.849,95.437,541.3430000000002,538.0840000000002,0.0
52669.0,STARLINK-3972,PAYLOAD,2022-10-23 07:45:21,15.08853316,0.0002392,53.2161,290.9296,45.3652,314.7534,0.00043038,6.57e-05,0.0,0 STARLINK-3972,1 52669U 22053P   22296.32316107  .00006570  00000-0  43038-3 0  9993,2 52669  53.2161 290.9296 0002392  45.3652 314.7534 15.08853316 24841,6917.84,95.437,541.359,538.05,0.0
52669.0,STARLINK-3972,PAYLOAD,2022-10-23 17:17:39,15.08860067,0.0002401999999999,53.216,289.1445,44.8276,315.291,0.00050804,7.811e-05,0.0,0 STARLINK-3972,1 52669U 22053P   22296.72059624  .00007811  00000-0  50804-3 0  9993,2 52669  53.2160 289.1445 0002402  44.8276 315.2910 15.08860067 24906,6917.819,95.436,541.346,538.0219999999998,0.0
52669.0,STARLINK-3972,PAYLOAD,2022-10-24 09:11:30,15.08850733,0.0002409,53.2161,286.1726,37.0299,323.0859,0.00017508,2.5e-05,0.0,0 STARLINK-3972,1 52669U 22053P   22297.38299351  .00002500  00000-0  17508-3 0  9993,2 52669  53.2161 286.1726 0002409  37.0299 323.0859 15.08850733 25002,6917.848000000001,95.437,541.379,538.0459999999998,0.0
52669.0,STARLINK-3972,PAYLOAD,2022-10-25 02:40:46,15.08822833,0.0001991,53.2168,282.9003,43.9902,316.1248,-0.00021758,-3.748e-05,0.0,0 STARLINK-3972,1 52669U 22053P   22298.11165242 -.00003748  00000-0 -21758-3 0  9995,2 52669  53.2168 282.9003 0001991  43.9902 316.1248 15.08822833 25110,6917.933000000001,95.439,541.175,538.4209999999998,0.0
52669.0,STARLINK-3972,PAYLOAD,2022-10-25 05:51:33,15.08825583,0.0002201,53.217,282.3071,36.1243,323.9897,-0.00011379,-2.098e-05,0.0,0 STARLINK-3972,1 52669U 22053P   22298.24413277 -.00002098  00000-0 -11379-3 0  9998,2 52669  53.2170 282.3071 0002201  36.1243 323.9897 15.08825583 25132,6917.924,95.438,541.312,538.2669999999998,0.0
52669.0,STARLINK-3972,PAYLOAD,2022-10-25 18:34:37,15.08839967,0.0002289,53.2164,279.926,44.069,316.0484,5.1456e-05,5.31e-06,0.0,0 STARLINK-3972,1 52669U 22053P   22298.77404700  .00000531  00000-0  51456-4 0  9996,2 52669  53.2164 279.9260 0002289  44.0690 316.0484 15.08839967 25212,6917.88,95.438,541.3290000000002,538.1619999999998,0.0
52669.0,STARLINK-3972,PAYLOAD,2022-10-26 05:42:19,15.08846194,0.0002273,53.2166,277.8449,41.1017,319.0146,0.0003921,5.959e-05,0.0,0 STARLINK-3972,1 52669U 22053P   22299.23772737  .00005959  00000-0  39210-3 0  9998,2 52669  53.2166 277.8449 0002273  41.1017 319.0146 15.08846194 25289,6917.861,95.437,541.299,538.154,0.0
52669.0,STARLINK-3972,PAYLOAD,2022-10-26 15:14:38,15.08834871,0.0002318,53.2167,276.0611,41.1452,318.9715,0.00021079,3.068e-05,0.0,0 STARLINK-3972,1 52669U 22053P   22299.63517359  .00003068  00000-0  21079-3 0  9992,2 52669  53.2167 276.0611 0002318  41.1452 318.9715 15.08834871 25341,6917.896,95.438,541.365,538.1569999999998,0.0
52669.0,STARLINK-3972,PAYLOAD,2022-10-27 02:22:20,15.08850057,0.0002246,53.217,273.9794,40.5905,319.5254,0.00043202,6.596e-05,0.0,0 STARLINK-3972,1 52669U 22053P   22300.09884878  .00006596  00000-0  43202-3 0  9999,2 52669  53.2170 273.9794 0002246  40.5905 319.5254 15.08850057 25416,6917.85,95.437,541.268,538.161,0.0
52669.0,STARLINK-3972,PAYLOAD,2022-10-27 08:43:52,15.08857467,0.0002251999999999,53.2169,272.7898,42.3446,317.772,0.00041141,6.269e-05,0.0,0 STARLINK-3972,1 52669U 22053P   22300.36380434  .00006269  00000-0  41141-3 0  9995,2 52669  53.2169 272.7898 0002252  42.3446 317.7720 15.08857467 25457,6917.8269999999975,95.436,541.25,538.134,0.0
52669.0,STARLINK-3972,PAYLOAD,2022-10-27 18:16:11,15.08848832,0.0002211999999999,53.217,271.0062,40.0202,320.0953,0.00015119,2.119e-05,0.0,0 STARLINK-3972,1 52669U 22053P   22300.76124603  .00002119  00000-0  15119-3 0  9999,2 52669  53.2170 271.0062 0002212  40.0202 320.0953 15.08848832 25513,6917.853,95.437,541.249,538.188,0.0
